{
  "type": "FeatureCollection",
  "features": [
    {
      "type": "Feature",
      "properties": {
        "norad_id": 67131,
        "name": "ZIYUAN 3-04 (ZY 3-04)",
        "group": "last-30-days",
        "lat": -38.88551226714841,
        "lon": -112.75535446886234,
        "alt_km": 507.9381985065238,
        "timestamp": "2025-12-25T07:00:32.767879+00:00",
        "meta_object_name": "ZIYUAN 3-04 (ZY 3-04)",
        "meta_object_id": "2025-300A",
        "meta_epoch": "2025-12-21T18:22:34.187808",
        "meta_mean_motion": 15.21179479,
        "meta_eccentricity": 0.00027623,
        "meta_inclination": 97.4922,
        "meta_ra_of_asc_node": 69.8294,
        "meta_arg_of_pericenter": 167.6924,
        "meta_mean_anomaly": 192.438,
        "meta_ephemeris_type": 0,
        "meta_classification_type": "U",
        "meta_norad_cat_id": 67131,
        "meta_element_set_no": 999,
        "meta_rev_at_epoch": 86,
        "meta_bstar": 6.5769783e-05,
        "meta_mean_motion_dot": 1.396e-05,
        "meta_mean_motion_ddot": 0,
        "tle_line1": "1 67131U 25300A   25355.76567347  .00001396  00000+0  65770-4 0  9990",
        "tle_line2": "2 67131  97.4922  69.8294 0002762 167.6924 192.4380 15.21179479   860"
      },
      "geometry": {
        "type": "Point",
        "coordinates": [
          -112.75535446886234,
          -38.88551226714841
        ]
      }
    },
    {
      "type": "Feature",
      "properties": {
        "norad_id": 67132,
        "name": "CZ-4B R/B",
        "group": "last-30-days",
        "lat": 28.411207594806058,
        "lon": -101.82919737360592,
        "alt_km": 487.18145539904526,
        "timestamp": "2025-12-25T07:00:32.767890+00:00",
        "meta_object_name": "CZ-4B R/B",
        "meta_object_id": "2025-300B",
        "meta_epoch": "2025-12-18T16:13:04.609056",
        "meta_mean_motion": 15.63831828,
        "meta_eccentricity": 0.01741973,
        "meta_inclination": 97.5563,
        "meta_ra_of_asc_node": 66.966,
        "meta_arg_of_pericenter": 9.3582,
        "meta_mean_anomaly": 351.0851,
        "meta_ephemeris_type": 0,
        "meta_classification_type": "U",
        "meta_norad_cat_id": 67132,
        "meta_element_set_no": 999,
        "meta_rev_at_epoch": 40,
        "meta_bstar": 0.00019566238,
        "meta_mean_motion_dot": 0.00040543,
        "meta_mean_motion_ddot": 2.652968e-06,
        "tle_line1": "1 67132U 25300B   25352.67574779  .00040543  26530-5  19566-3 0  9995",
        "tle_line2": "2 67132  97.5563  66.9660 0174197   9.3582 351.0851 15.63831828   407"
      },
      "geometry": {
        "type": "Point",
        "coordinates": [
          -101.82919737360592,
          28.411207594806058
        ]
      }
    },
    {
      "type": "Feature",
      "properties": {
        "norad_id": 67133,
        "name": "KUIPER-00144",
        "group": "last-30-days",
        "lat": 33.47918568246074,
        "lon": -146.6962480703061,
        "alt_km": 451.44248361886457,
        "timestamp": "2025-12-25T07:00:32.767903+00:00",
        "meta_object_name": "KUIPER-00144",
        "meta_object_id": "2025-301A",
        "meta_epoch": "2025-12-24T22:00:03.000096",
        "meta_mean_motion": 15.35379035,
        "meta_eccentricity": 0.00060934,
        "meta_inclination": 51.87,
        "meta_ra_of_asc_node": 66.4129,
        "meta_arg_of_pericenter": 118.1173,
        "meta_mean_anomaly": 101.26,
        "meta_ephemeris_type": 0,
        "meta_classification_type": "U",
        "meta_norad_cat_id": 67133,
        "meta_element_set_no": 999,
        "meta_rev_at_epoch": 164,
        "meta_bstar": 5.8681311e-05,
        "meta_mean_motion_dot": 1.664e-05,
        "meta_mean_motion_ddot": 0,
        "tle_line1": "1 67133U 25301A   25358.91670139  .00001664  00000+0  58681-4 0  9998",
        "tle_line2": "2 67133  51.8700  66.4129 0006093 118.1173 101.2600 15.35379035  1643"
      },
      "geometry": {
        "type": "Point",
        "coordinates": [
          -146.6962480703061,
          33.47918568246074
        ]
      }
    },
    {
      "type": "Feature",
      "properties": {
        "norad_id": 67134,
        "name": "KUIPER-00164",
        "group": "last-30-days",
        "lat": 16.18979430252647,
        "lon": -128.62945257642602,
        "alt_km": 454.99961903562144,
        "timestamp": "2025-12-25T07:00:32.767915+00:00",
        "meta_object_name": "KUIPER-00164",
        "meta_object_id": "2025-301B",
        "meta_epoch": "2025-12-24T22:00:03.000096",
        "meta_mean_motion": 15.36079056,
        "meta_eccentricity": 0.00031424,
        "meta_inclination": 51.8722,
        "meta_ra_of_asc_node": 66.3644,
        "meta_arg_of_pericenter": 99.9417,
        "meta_mean_anomaly": 142.2339,
        "meta_ephemeris_type": 0,
        "meta_classification_type": "U",
        "meta_norad_cat_id": 67134,
        "meta_element_set_no": 999,
        "meta_rev_at_epoch": 241,
        "meta_bstar": 2.927899e-05,
        "meta_mean_motion_dot": 6.59e-06,
        "meta_mean_motion_ddot": 0,
        "tle_line1": "1 67134U 25301B   25358.91670139  .00000659  00000+0  29279-4 0  9993",
        "tle_line2": "2 67134  51.8722  66.3644 0003142  99.9417 142.2339 15.36079056  2419"
      },
      "geometry": {
        "type": "Point",
        "coordinates": [
          -128.62945257642602,
          16.18979430252647
        ]
      }
    },
    {
      "type": "Feature",
      "properties": {
        "norad_id": 67135,
        "name": "KUIPER-00175",
        "group": "last-30-days",
        "lat": 3.7220680691492207,
        "lon": -118.41587873680335,
        "alt_km": 457.2672078650321,
        "timestamp": "2025-12-25T07:00:32.767926+00:00",
        "meta_object_name": "KUIPER-00175",
        "meta_object_id": "2025-301C",
        "meta_epoch": "2025-12-24T22:00:03.000096",
        "meta_mean_motion": 15.3655278,
        "meta_eccentricity": 0.00022056,
        "meta_inclination": 51.874,
        "meta_ra_of_asc_node": 66.3262,
        "meta_arg_of_pericenter": 56.2483,
        "meta_mean_anomaly": 201.316,
        "meta_ephemeris_type": 0,
        "meta_classification_type": "U",
        "meta_norad_cat_id": 67135,
        "meta_element_set_no": 999,
        "meta_rev_at_epoch": 230,
        "meta_bstar": 7.7313566e-05,
        "meta_mean_motion_dot": 2.415e-05,
        "meta_mean_motion_ddot": 0,
        "tle_line1": "1 67135U 25301C   25358.91670139  .00002415  00000+0  77314-4 0  9999",
        "tle_line2": "2 67135  51.8740  66.3262 0002205  56.2483 201.3160 15.36552780  2301"
      },
      "geometry": {
        "type": "Point",
        "coordinates": [
          -118.41587873680335,
          3.7220680691492207
        ]
      }
    },
    {
      "type": "Feature",
      "properties": {
        "norad_id": 67136,
        "name": "KUIPER-00179",
        "group": "last-30-days",
        "lat": 11.272597160885223,
        "lon": -124.47121030498793,
        "alt_km": 456.08741544161785,
        "timestamp": "2025-12-25T07:00:32.767936+00:00",
        "meta_object_name": "KUIPER-00179",
        "meta_object_id": "2025-301D",
        "meta_epoch": "2025-12-24T22:00:03.000096",
        "meta_mean_motion": 15.36265901,
        "meta_eccentricity": 0.00029439,
        "meta_inclination": 51.8736,
        "meta_ra_of_asc_node": 66.348,
        "meta_arg_of_pericenter": 81.3106,
        "meta_mean_anomaly": 166.9781,
        "meta_ephemeris_type": 0,
        "meta_classification_type": "U",
        "meta_norad_cat_id": 67136,
        "meta_element_set_no": 999,
        "meta_rev_at_epoch": 241,
        "meta_bstar": 4.1519935e-05,
        "meta_mean_motion_dot": 1.104e-05,
        "meta_mean_motion_ddot": 0,
        "tle_line1": "1 67136U 25301D   25358.91670139  .00001104  00000+0  41520-4 0  9994",
        "tle_line2": "2 67136  51.8736  66.3480 0002943  81.3106 166.9781 15.36265901  2412"
      },
      "geometry": {
        "type": "Point",
        "coordinates": [
          -124.47121030498793,
          11.272597160885223
        ]
      }
    },
    {
      "type": "Feature",
      "properties": {
        "norad_id": 67137,
        "name": "KUIPER-00181",
        "group": "last-30-days",
        "lat": 50.299930633940434,
        "lon": 173.52386493193296,
        "alt_km": 450.63153432713807,
        "timestamp": "2025-12-25T07:00:32.767949+00:00",
        "meta_object_name": "KUIPER-00181",
        "meta_object_id": "2025-301E",
        "meta_epoch": "2025-12-24T22:00:03.000096",
        "meta_mean_motion": 15.34366509,
        "meta_eccentricity": 0.00100461,
        "meta_inclination": 51.8635,
        "meta_ra_of_asc_node": 66.48,
        "meta_arg_of_pericenter": 140.4405,
        "meta_mean_anomaly": 46.9042,
        "meta_ephemeris_type": 0,
        "meta_classification_type": "U",
        "meta_norad_cat_id": 67137,
        "meta_element_set_no": 999,
        "meta_rev_at_epoch": 239,
        "meta_bstar": -2.0689513e-05,
        "meta_mean_motion_dot": -1.084e-05,
        "meta_mean_motion_ddot": 0,
        "tle_line1": "1 67137U 25301E   25358.91670139 -.00001084  00000+0 -20690-4 0  9999",
        "tle_line2": "2 67137  51.8635  66.4800 0010046 140.4405  46.9042 15.34366509  2398"
      },
      "geometry": {
        "type": "Point",
        "coordinates": [
          173.52386493193296,
          50.299930633940434
        ]
      }
    }
  ]
}